[{"OBJECT_NAME":"DELTA 2 R/B","OBJECT_ID":"1999-041E","EPOCH":"2026-03-05T09:45:28.687392","MEAN_MOTION":14.11824182,"ECCENTRICITY":0.05023494,"INCLINATION":51.7641,"RA_OF_ASC_NODE":318.3878,"ARG_OF_PERICENTER":335.7931,"MEAN_ANOMALY":22.0116,"EPHEMERIS_TYPE":0,"CLASSIFICATION_TYPE":"U","NORAD_CAT_ID":25876,"ELEMENT_SET_NO":999,"REV_AT_EPOCH":36242,"BSTAR":0.00031215802,"MEAN_MOTION_DOT":1.706e-5,"MEAN_MOTION_DDOT":0},{"OBJECT_NAME":"HELIOS 1B","OBJECT_ID":"1999-064A","EPOCH":"2026-03-05T14:39:53.668512","MEAN_MOTION":14.87679577,"ECCENTRICITY":0.00025246,"INCLINATION":98.1698,"RA_OF_ASC_NODE":326.7346,"ARG_OF_PERICENTER":80.2953,"MEAN_ANOMALY":279.8547,"EPHEMERIS_TYPE":0,"CLASSIFICATION_TYPE":"U","NORAD_CAT_ID":25977,"ELEMENT_SET_NO":999,"REV_AT_EPOCH":68465,"BSTAR":0.00034149387,"MEAN_MOTION_DOT":3.052e-5,"MEAN_MOTION_DDOT":0},{"OBJECT_NAME":"TERRA","OBJECT_ID":"1999-068A","EPOCH":"2026-03-05T14:59:59.547264","MEAN_MOTION":14.61009879,"ECCENTRICITY":0.00024539,"INCLINATION":97.9601,"RA_OF_ASC_NODE":118.2148,"ARG_OF_PERICENTER":161.1551,"MEAN_ANOMALY":359.5896,"EPHEMERIS_TYPE":0,"CLASSIFICATION_TYPE":"U","NORAD_CAT_ID":25994,"ELEMENT_SET_NO":999,"REV_AT_EPOCH":39448,"BSTAR":0.00013767159,"MEAN_MOTION_DOT":6.31e-6,"MEAN_MOTION_DDOT":0},{"OBJECT_NAME":"SL-16 R/B","OBJECT_ID":"2000-006B","EPOCH":"2026-03-05T11:46:44.043456","MEAN_MOTION":14.15825287,"ECCENTRICITY":0.00170838,"INCLINATION":71.0012,"RA_OF_ASC_NODE":106.6669,"ARG_OF_PERICENTER":196.0454,"MEAN_ANOMALY":164.0131,"EPHEMERIS_TYPE":0,"CLASSIFICATION_TYPE":"U","NORAD_CAT_ID":26070,"ELEMENT_SET_NO":999,"REV_AT_EPOCH":34796,"BSTAR":9.0116078e-5,"MEAN_MOTION_DOT":1.3e-6,"MEAN_MOTION_DDOT":0},{"OBJECT_NAME":"TITAN 4B R/B","OBJECT_ID":"2000-047B","EPOCH":"2026-03-05T12:32:00.927744","MEAN_MOTION":15.095135,"ECCENTRICITY":0.00382002,"INCLINATION":67.989,"RA_OF_ASC_NODE":52.228,"ARG_OF_PERICENTER":40.3176,"MEAN_ANOMALY":320.0794,"EPHEMERIS_TYPE":0,"CLASSIFICATION_TYPE":"U","NORAD_CAT_ID":26474,"ELEMENT_SET_NO":999,"REV_AT_EPOCH":39228,"BSTAR":0.00036288956,"MEAN_MOTION_DOT":5.8e-5,"MEAN_MOTION_DDOT":0},{"OBJECT_NAME":"ENVISAT","OBJECT_ID":"2002-009A","EPOCH":"2026-03-05T14:25:17.962176","MEAN_MOTION":14.39035217,"ECCENTRICITY":0.000133,"INCLINATION":98.3723,"RA_OF_ASC_NODE":18.2957,"ARG_OF_PERICENTER":84.3675,"MEAN_ANOMALY":89.0991,"EPHEMERIS_TYPE":0,"CLASSIFICATION_TYPE":"U","NORAD_CAT_ID":27386,"ELEMENT_SET_NO":999,"REV_AT_EPOCH":25858,"BSTAR":7.8600219e-5,"MEAN_MOTION_DOT":2.0e-6,"MEAN_MOTION_DDOT":0},{"OBJECT_NAME":"IDEFIX & ARIANE 42P R/B","OBJECT_ID":"2002-021B","EPOCH":"2026-03-05T13:55:41.479680","MEAN_MOTION":14.31022769,"ECCENTRICITY":0.00113348,"INCLINATION":98.5867,"RA_OF_ASC_NODE":3.2358,"ARG_OF_PERICENTER":194.4976,"MEAN_ANOMALY":165.5884,"EPHEMERIS_TYPE":0,"CLASSIFICATION_TYPE":"U","NORAD_CAT_ID":27422,"ELEMENT_SET_NO":999,"REV_AT_EPOCH":24343,"BSTAR":0.00017379362,"MEAN_MOTION_DOT":4.14e-6,"MEAN_MOTION_DDOT":0},{"OBJECT_NAME":"AQUA","OBJECT_ID":"2002-022A","EPOCH":"2026-03-05T16:02:22.663968","MEAN_MOTION":14.61965883,"ECCENTRICITY":6.082e-5,"INCLINATION":98.4169,"RA_OF_ASC_NODE":31.9601,"ARG_OF_PERICENTER":62.8235,"MEAN_ANOMALY":112.9135,"EPHEMERIS_TYPE":0,"CLASSIFICATION_TYPE":"U","NORAD_CAT_ID":27424,"ELEMENT_SET_NO":999,"REV_AT_EPOCH":26814,"BSTAR":0.00032077634,"MEAN_MOTION_DOT":1.558e-5,"MEAN_MOTION_DDOT":0},{"OBJECT_NAME":"CZ-4B R/B","OBJECT_ID":"2002-024C","EPOCH":"2026-03-05T15:13:38.117280","MEAN_MOTION":14.1454694,"ECCENTRICITY":0.0050671,"INCLINATION":98.8847,"RA_OF_ASC_NODE":118.0614,"ARG_OF_PERICENTER":35.6334,"MEAN_ANOMALY":117.2258,"EPHEMERIS_TYPE":0,"CLASSIFICATION_TYPE":"U","NORAD_CAT_ID":27432,"ELEMENT_SET_NO":999,"REV_AT_EPOCH":22866,"BSTAR":6.2406576e-5,"MEAN_MOTION_DOT":7.7e-7,"MEAN_MOTION_DDOT":0},{"OBJECT_NAME":"MIDORI II (ADEOS-II)","OBJECT_ID":"2002-056A","EPOCH":"2026-03-05T14:28:55.201152","MEAN_MOTION":14.29281477,"ECCENTRICITY":0.00017386,"INCLINATION":98.7764,"RA_OF_ASC_NODE":23.0529,"ARG_OF_PERICENTER":48.3112,"MEAN_ANOMALY":311.8218,"EPHEMERIS_TYPE":0,"CLASSIFICATION_TYPE":"U","NORAD_CAT_ID":27597,"ELEMENT_SET_NO":999,"REV_AT_EPOCH":20971,"BSTAR":0.00019286824,"MEAN_MOTION_DOT":4.45e-6,"MEAN_MOTION_DDOT":0},{"OBJECT_NAME":"H-2A R/B","OBJECT_ID":"2002-056E","EPOCH":"2026-03-05T12:44:19.379904","MEAN_MOTION":14.33757611,"ECCENTRICITY":0.0070248,"INCLINATION":98.3196,"RA_OF_ASC_NODE":25.0548,"ARG_OF_PERICENTER":173.0125,"MEAN_ANOMALY":303.1477,"EPHEMERIS_TYPE":0,"CLASSIFICATION_TYPE":"U","NORAD_CAT_ID":27601,"ELEMENT_SET_NO":999,"REV_AT_EPOCH":21351,"BSTAR":0.00014827779,"MEAN_MOTION_DOT":3.82e-6,"MEAN_MOTION_DDOT":0},{"OBJECT_NAME":"CZ-4B R/B","OBJECT_ID":"2003-049C","EPOCH":"2026-03-05T14:25:50.921184","MEAN_MOTION":14.55015808,"ECCENTRICITY":0.0047109,"INCLINATION":98.6876,"RA_OF_ASC_NODE":59.3457,"ARG_OF_PERICENTER":243.644,"MEAN_ANOMALY":115.9914,"EPHEMERIS_TYPE":0,"CLASSIFICATION_TYPE":"U","NORAD_CAT_ID":28059,"ELEMENT_SET_NO":999,"REV_AT_EPOCH":18600,"BSTAR":0.00014424224,"MEAN_MOTION_DOT":5.78e-6,"MEAN_MOTION_DDOT":0},{"OBJECT_NAME":"CZ-2C R/B","OBJECT_ID":"2004-012C","EPOCH":"2026-03-05T10:49:21.249696","MEAN_MOTION":15.63926274,"ECCENTRICITY":0.00131363,"INCLINATION":97.7238,"RA_OF_ASC_NODE":129.3437,"ARG_OF_PERICENTER":327.0449,"MEAN_ANOMALY":32.9988,"EPHEMERIS_TYPE":0,"CLASSIFICATION_TYPE":"U","NORAD_CAT_ID":28222,"ELEMENT_SET_NO":999,"REV_AT_EPOCH":20361,"BSTAR":0.00068298263,"MEAN_MOTION_DOT":0.00064739,"MEAN_MOTION_DDOT":0},{"OBJECT_NAME":"SL-16 R/B","OBJECT_ID":"2004-021B","EPOCH":"2026-03-05T13:37:39.933120","MEAN_MOTION":14.14599243,"ECCENTRICITY":0.00038074,"INCLINATION":70.9991,"RA_OF_ASC_NODE":241.1427,"ARG_OF_PERICENTER":17.4945,"MEAN_ANOMALY":342.6308,"EPHEMERIS_TYPE":0,"CLASSIFICATION_TYPE":"U","NORAD_CAT_ID":28353,"ELEMENT_SET_NO":999,"REV_AT_EPOCH":12225,"BSTAR":-7.4388762e-5,"MEAN_MOTION_DOT":-1.91e-6,"MEAN_MOTION_DDOT":0},{"OBJECT_NAME":"CZ-4B R/B","OBJECT_ID":"2004-035C","EPOCH":"2026-03-05T12:35:19.245984","MEAN_MOTION":15.28973488,"ECCENTRICITY":0.00314295,"INCLINATION":97.3499,"RA_OF_ASC_NODE":98.8166,"ARG_OF_PERICENTER":346.6915,"MEAN_ANOMALY":13.3493,"EPHEMERIS_TYPE":0,"CLASSIFICATION_TYPE":"U","NORAD_CAT_ID":28415,"ELEMENT_SET_NO":999,"REV_AT_EPOCH":17927,"BSTAR":0.00034137757,"MEAN_MOTION_DOT":9.675e-5,"MEAN_MOTION_DDOT":0},{"OBJECT_NAME":"CZ-2C R/B","OBJECT_ID":"2004-046B","EPOCH":"2026-03-05T04:59:58.518816","MEAN_MOTION":14.26990318,"ECCENTRICITY":0.01396229,"INCLINATION":98.1987,"RA_OF_ASC_NODE":339.471,"ARG_OF_PERICENTER":167.6551,"MEAN_ANOMALY":192.8111,"EPHEMERIS_TYPE":0,"CLASSIFICATION_TYPE":"U","NORAD_CAT_ID":28480,"ELEMENT_SET_NO":999,"REV_AT_EPOCH":10786,"BSTAR":7.3366351e-5,"MEAN_MOTION_DOT":1.57e-6,"MEAN_MOTION_DDOT":0},{"OBJECT_NAME":"ARIANE 5 R/B","OBJECT_ID":"2004-049H","EPOCH":"2026-03-05T10:56:23.359488","MEAN_MOTION":14.85257082,"ECCENTRICITY":0.00842386,"INCLINATION":98.2618,"RA_OF_ASC_NODE":232.7545,"ARG_OF_PERICENTER":5.6646,"MEAN_ANOMALY":354.55,"EPHEMERIS_TYPE":0,"CLASSIFICATION_TYPE":"U","NORAD_CAT_ID":28499,"ELEMENT_SET_NO":999,"REV_AT_EPOCH":14516,"BSTAR":0.00013086918,"MEAN_MOTION_DOT":1.132e-5,"MEAN_MOTION_DDOT":0}]
